{"type": "FeatureCollection", "features": [ {"type": "Feature", "properties": {"norad_id": 37216, "name": "COSMO-SKYMED 4", "group": "resource", "lat": 63.09033959913808, "lon": -3.8210118442453624, "alt_km": 615.579894770668, "timestamp": "2025-12-04T21:36:15.531113+00:00", "meta": {"OBJECT_NAME": "COSMO-SKYMED 4", "OBJECT_ID": "2010-060A", "EPOCH": "2025-12-04T16:13:23.485728", "MEAN_MOTION": 14.82153185, "ECCENTRICITY": 0.00013884, "INCLINATION": 97.8808, "RA_OF_ASC_NODE": 160.1207, "ARG_OF_PERICENTER": 83.0175, "MEAN_ANOMALY": 277.1196, "EPHEMERIS_TYPE": 0, "CLASSIFICATION_TYPE": "U", "NORAD_CAT_ID": 37216, "ELEMENT_SET_NO": 999, "REV_AT_EPOCH": 81575, "BSTAR": 0.00014104474, "MEAN_MOTION_DOT": 1.071e-05, "MEAN_MOTION_DDOT": 0}, "tle": {"line1": "1 37216U 10060A   25338.67596627  .00001071  00000+0  14104-3 0  9996", "line2": "2 37216  97.8808 160.1207 0001388  83.0175 277.1196 14.82153185815759"}}, "geometry": {"type": "Point", "coordinates": [-3.8210118442453624, 63.09033959913808]}}, {"type": "Feature", "properties": {"norad_id": 37387, "name": "RESOURCESAT-2", "group": "resource", "lat": -12.960526026055629, "lon": 44.527238443983684, "alt_km": 823.2136088457919, "timestamp": "2025-12-04T21:36:15.531123+00:00", "meta": {"OBJECT_NAME": "RESOURCESAT-2", "OBJECT_ID": "2011-015A", "EPOCH": "2025-12-04T14:54:32.559552", "MEAN_MOTION": 14.21592319, "ECCENTRICITY": 0.00067456, "INCLINATION": 98.7888, "RA_OF_ASC_NODE": 42.2091, "ARG_OF_PERICENTER": 63.571, "MEAN_ANOMALY": 296.6158, "EPHEMERIS_TYPE": 0, "CLASSIFICATION_TYPE": "U", "NORAD_CAT_ID": 37387, "ELEMENT_SET_NO": 999, "REV_AT_EPOCH": 75853, "BSTAR": 0.00017631678, "MEAN_MOTION_DOT": 3.42e-06, "MEAN_MOTION_DDOT": 0}, "tle": {"line1": "1 37387U 11015A   25338.62121018  .00000342  00000+0  17632-3 0  9998", "line2": "2 37387  98.7888  42.2091 0006745  63.5710 296.6158 14.21592319758532"}}, "geometry": {"type": "Point", "coordinates": [44.527238443983684, -12.960526026055629]}}, {"type": "Feature", "properties": {"norad_id": 37781, "name": "HAIYANG-2A", "group": "resource", "lat": 19.778549305789127, "lon": 163.34743966595823, "alt_km": 967.4756497739309, "timestamp": "2025-12-04T21:36:15.531134+00:00", "meta": {"OBJECT_NAME": "HAIYANG-2A", "OBJECT_ID": "2011-043A", "EPOCH": "2025-12-04T15:36:26.028000", "MEAN_MOTION": 13.78834357, "ECCENTRICITY": 0.00016477, "INCLINATION": 99.3377, "RA_OF_ASC_NODE": 339.7095, "ARG_OF_PERICENTER": 95.5012, "MEAN_ANOMALY": 264.6327, "EPHEMERIS_TYPE": 0, "CLASSIFICATION_TYPE": "U", "NORAD_CAT_ID": 37781, "ELEMENT_SET_NO": 999, "REV_AT_EPOCH": 71987, "BSTAR": 5.9433851e-05, "MEAN_MOTION_DOT": 1.6e-07, "MEAN_MOTION_DDOT": 0}, "tle": {"line1": "1 37781U 11043A   25338.65030125  .00000016  00000+0  59434-4 0  9993", "line2": "2 37781  99.3377 339.7095 0001647  95.5012 264.6327 13.78834357719873"}}, "geometry": {"type": "Point", "coordinates": [163.34743966595823, 19.778549305789127]}}, {"type": "Feature", "properties": {"norad_id": 37791, "name": "RASAT", "group": "resource", "lat": -71.34685120334694, "lon": 93.11325766021533, "alt_km": 689.7782792302005, "timestamp": "2025-12-04T21:36:15.531144+00:00", "meta": {"OBJECT_NAME": "RASAT", "OBJECT_ID": "2011-044D", "EPOCH": "2025-12-04T14:16:16.215168", "MEAN_MOTION": 14.67891935, "ECCENTRICITY": 0.00219558, "INCLINATION": 98.0656, "RA_OF_ASC_NODE": 67.9733, "ARG_OF_PERICENTER": 89.5522, "MEAN_ANOMALY": 23.767, "EPHEMERIS_TYPE": 0, "CLASSIFICATION_TYPE": "U", "NORAD_CAT_ID": 37791, "ELEMENT_SET_NO": 999, "REV_AT_EPOCH": 76463, "BSTAR": 0.00023079529, "MEAN_MOTION_DOT": 1.275e-05, "MEAN_MOTION_DDOT": 0}, "tle": {"line1": "1 37791U 11044D   25338.59463212  .00001275  00000+0  23080-3 0  9990", "line2": "2 37791  98.0656  67.9733 0021955  89.5522  23.7670 14.67891935764635"}}, "geometry": {"type": "Point", "coordinates": [93.11325766021533, -71.34685120334694]}}, {"type": "Feature", "properties": {"norad_id": 37841, "name": "SRMSAT", "group": "resource", "lat": 18.461234519690652, "lon": -91.42485244979325, "alt_km": 852.734386100662, "timestamp": "2025-12-04T21:36:15.531155+00:00", "meta": {"OBJECT_NAME": "SRMSAT", "OBJECT_ID": "2011-058D", "EPOCH": "2025-12-04T16:21:06.386688", "MEAN_MOTION": 14.11507205, "ECCENTRICITY": 0.00117168, "INCLINATION": 19.9698, "RA_OF_ASC_NODE": 156.7245, "ARG_OF_PERICENTER": 224.0627, "MEAN_ANOMALY": 213.4569, "EPHEMERIS_TYPE": 0, "CLASSIFICATION_TYPE": "U", "NORAD_CAT_ID": 37841, "ELEMENT_SET_NO": 999, "REV_AT_EPOCH": 73030, "BSTAR": 0.00015376395, "MEAN_MOTION_DOT": 5.48e-06, "MEAN_MOTION_DDOT": 0}, "tle": {"line1": "1 37841U 11058D   25338.68132392  .00000548  00000+0  15376-3 0  9994", "line2": "2 37841  19.9698 156.7245 0011716 224.0627 213.4569 14.11507205730305"}}, "geometry": {"type": "Point", "coordinates": [-91.42485244979325, 18.461234519690652]}}, {"type": "Feature", "properties": {"norad_id": 38012, "name": "PLEIADES 1A", "group": "resource", "lat": -14.549832421729256, "lon": 53.92987459848562, "alt_km": 702.6033578169036, "timestamp": "2025-12-04T21:36:15.531165+00:00", "meta": {"OBJECT_NAME": "PLEIADES 1A", "OBJECT_ID": "2011-076F", "EPOCH": "2025-12-04T15:49:49.680192", "MEAN_MOTION": 14.58549621, "ECCENTRICITY": 0.00013937, "INCLINATION": 98.1833, "RA_OF_ASC_NODE": 51.5526, "ARG_OF_PERICENTER": 80.6202, "MEAN_ANOMALY": 82.3438, "EPHEMERIS_TYPE": 0, "CLASSIFICATION_TYPE": "U", "NORAD_CAT_ID": 38012, "ELEMENT_SET_NO": 999, "REV_AT_EPOCH": 74363, "BSTAR": 0.00019893026, "MEAN_MOTION_DOT": 8.79e-06, "MEAN_MOTION_DDOT": 0}, "tle": {"line1": "1 38012U 11076F   25338.65960278  .00000879  00000+0  19893-3 0  9999", "line2": "2 38012  98.1833  51.5526 0001393  80.6202  82.3438 14.58549621743632"}}, "geometry": {"type": "Point", "coordinates": [53.92987459848562, -14.549832421729256]}}, {"type": "Feature", "properties": {"norad_id": 38038, "name": "ZIYUAN 1-02C (ZY 1-02C)", "group": "resource", "lat": 66.30096325711938, "lon": -115.18495163349895, "alt_km": 755.3597064768664, "timestamp": "2025-12-04T21:36:15.531176+00:00", "meta": {"OBJECT_NAME": "ZIYUAN 1-02C (ZY 1-02C)", "OBJECT_ID": "2011-079A", "EPOCH": "2025-12-04T16:46:50.466144", "MEAN_MOTION": 14.37998619, "ECCENTRICITY": 0.00068388, "INCLINATION": 98.4345, "RA_OF_ASC_NODE": 44.8608, "ARG_OF_PERICENTER": 160.7339, "MEAN_ANOMALY": 351.6553, "EPHEMERIS_TYPE": 0, "CLASSIFICATION_TYPE": "U", "NORAD_CAT_ID": 38038, "ELEMENT_SET_NO": 999, "REV_AT_EPOCH": 73125, "BSTAR": 0.00035270752, "MEAN_MOTION_DOT": 1.024e-05, "MEAN_MOTION_DDOT": 0}, "tle": {"line1": "1 38038U 11079A   25338.69919521  .00001024  00000+0  35271-3 0  9990", "line2": "2 38038  98.4345  44.8608 0006838 160.7339 351.6553 14.37998619731254"}}, "geometry": {"type": "Point", "coordinates": [-115.18495163349895, 66.30096325711938]}}, {"type": "Feature", "properties": {"norad_id": 38046, "name": "ZIYUAN 3-1 (ZY 3-1)", "group": "resource", "lat": -29.938800767093298, "lon": -139.01904819904487, "alt_km": 374.718265000467, "timestamp": "2025-12-04T21:36:15.531186+00:00", "meta": {"OBJECT_NAME": "ZIYUAN 3-1 (ZY 3-1)", "OBJECT_ID": "2012-001A", "EPOCH": "2025-12-04T16:06:46.635840", "MEAN_MOTION": 15.67058623, "ECCENTRICITY": 0.0002165, "INCLINATION": 97.1774, "RA_OF_ASC_NODE": 44.9093, "ARG_OF_PERICENTER": 26.248, "MEAN_ANOMALY": 333.8891, "EPHEMERIS_TYPE": 0, "CLASSIFICATION_TYPE": "U", "NORAD_CAT_ID": 38046, "ELEMENT_SET_NO": 999, "REV_AT_EPOCH": 77370, "BSTAR": 0.0010794197, "MEAN_MOTION_DOT": 0.00116185, "MEAN_MOTION_DDOT": 0}, "tle": {"line1": "1 38046U 12001A   25338.67137310  .00116185  00000+0  10794-2 0  9998", "line2": "2 38046  97.1774  44.9093 0002165  26.2480 333.8891 15.67058623773705"}}, "geometry": {"type": "Point", "coordinates": [-139.01904819904487, -29.938800767093298]}}, {"type": "Feature", "properties": {"norad_id": 38338, "name": "ARIRANG-3 (KOMPSAT-3)", "group": "resource", "lat": 25.571309821625714, "lon": 117.45178591478017, "alt_km": 690.5214985592193, "timestamp": "2025-12-04T21:36:15.531196+00:00", "meta": {"OBJECT_NAME": "ARIRANG-3 (KOMPSAT-3)", "OBJECT_ID": "2012-025B", "EPOCH": "2025-12-04T14:19:49.776096", "MEAN_MOTION": 14.61695812, "ECCENTRICITY": 0.00059379, "INCLINATION": 98.331, "RA_OF_ASC_NODE": 293.1258, "ARG_OF_PERICENTER": 4.6369, "MEAN_ANOMALY": 355.4886, "EPHEMERIS_TYPE": 0, "CLASSIFICATION_TYPE": "U", "NORAD_CAT_ID": 38338, "ELEMENT_SET_NO": 999, "REV_AT_EPOCH": 72291, "BSTAR": 0.00024546875, "MEAN_MOTION_DOT": 1.174e-05, "MEAN_MOTION_DDOT": 0}, "tle": {"line1": "1 38338U 12025B   25338.59710389  .00001174  00000+0  24547-3 0  9995", "line2": "2 38338  98.3310 293.1258 0005937   4.6369 355.4886 14.61695812722916"}}, "geometry": {"type": "Point", "coordinates": [117.45178591478017, 25.571309821625714]}}, {"type": "Feature", "properties": {"norad_id": 38709, "name": "EXACTVIEW-1 (ADS-1B)", "group": "resource", "lat": 69.34330913815019, "lon": -68.12457311969901, "alt_km": 802.3466667015173, "timestamp": "2025-12-04T21:36:15.531207+00:00", "meta": {"OBJECT_NAME": "EXACTVIEW-1 (ADS-1B)", "OBJECT_ID": "2012-039C", "EPOCH": "2025-12-04T14:21:21.312576", "MEAN_MOTION": 14.24902764, "ECCENTRICITY": 0.00110976, "INCLINATION": 98.9636, "RA_OF_ASC_NODE": 86.8176, "ARG_OF_PERICENTER": 17.3472, "MEAN_ANOMALY": 342.8083, "EPHEMERIS_TYPE": 0, "CLASSIFICATION_TYPE": "U", "NORAD_CAT_ID": 38709, "ELEMENT_SET_NO": 999, "REV_AT_EPOCH": 69499, "BSTAR": 0.00016019552, "MEAN_MOTION_DOT": 3.28e-06, "MEAN_MOTION_DDOT": 0}, "tle": {"line1": "1 38709U 12039C   25338.59816334  .00000328  00000+0  16020-3 0  9996", "line2": "2 38709  98.9636  86.8176 0011097  17.3472 342.8083 14.24902764694992"}}, "geometry": {"type": "Point", "coordinates": [-68.12457311969901, 69.34330913815019]}}]}